[{"OBJECT_NAME":"STARLINK-33669","OBJECT_ID":"2025-053U","EPOCH":"2026-03-09T12:42:22.529088","MEAN_MOTION":15.27572833,"ECCENTRICITY":6.956e-5,"INCLINATION":42.9995,"RA_OF_ASC_NODE":242.2677,"ARG_OF_PERICENTER":213.3292,"MEAN_ANOMALY":146.7516,"EPHEMERIS_TYPE":0,"CLASSIFICATION_TYPE":"U","NORAD_CAT_ID":63283,"ELEMENT_SET_NO":999,"REV_AT_EPOCH":5617,"BSTAR":0.0012078497,"MEAN_MOTION_DOT":0.00033117,"MEAN_MOTION_DDOT":0},{"OBJECT_NAME":"ELECTRON KICK STAGE R\/B","OBJECT_ID":"2024-047B","EPOCH":"2026-03-09T21:11:54.433824","MEAN_MOTION":15.27307897,"ECCENTRICITY":0.00092426,"INCLINATION":97.6338,"RA_OF_ASC_NODE":46.9382,"ARG_OF_PERICENTER":20.6031,"MEAN_ANOMALY":339.5579,"EPHEMERIS_TYPE":0,"CLASSIFICATION_TYPE":"U","NORAD_CAT_ID":59225,"ELEMENT_SET_NO":999,"REV_AT_EPOCH":10999,"BSTAR":0.00091229405,"MEAN_MOTION_DOT":0.00024409,"MEAN_MOTION_DDOT":0}]
